start=new Date('2021-09-19T00:00:00.000Z').valueOf();
sats=[{"MEAN_ANOMALY":"295.8092","MEAN_ELEMENT_THEORY":"SGP4","TLE_LINE1":"1 48027U 21024BC  21262.00001157  .00025820  00000-0  17469-2 0  9993","RA_OF_ASC_NODE":"81.0407","TIME_SYSTEM":"UTC","PERIOD":"95.593","TLE_LINE2":"2 48027  53.0539  81.0407 0001764  78.4374 295.8092 15.06379345  3583","EPHEMERIS_TYPE":"0","DECAY_DATE":null,"CLASSIFICATION_TYPE":"U","SEMIMAJOR_AXIS":"6925.412","REV_AT_EPOCH":"358","MEAN_MOTION_DOT":"0.00025820","CENTER_NAME":"EARTH","GP_ID":"184973179","MEAN_MOTION":"15.06379345","APOAPSIS":"548.499","OBJECT_TYPE":"PAYLOAD","NORAD_CAT_ID":"48027","FILE":"3118781","PERIAPSIS":"546.055","EPOCH":"2021-09-19T00:00:00.999648","SITE":"AFETR","OBJECT_ID":"2021-024BC","BSTAR":"0.00174690000000","MEAN_MOTION_DDOT":"0.0000000000000","ARG_OF_PERICENTER":"78.4374","ELEMENT_SET_NO":"999","ECCENTRICITY":"0.00017640","OBJECT_NAME":"STARLINK-2300","RCS_SIZE":"LARGE","REF_FRAME":"TEME","LAUNCH_DATE":"2021-03-24","COUNTRY_CODE":"US","INCLINATION":"53.0539"},{"GP_ID":"184973430","CENTER_NAME":"EARTH","APOAPSIS":"440.822","MEAN_MOTION":"15.42137434","SEMIMAJOR_AXIS":"6817.939","REV_AT_EPOCH":"368","MEAN_MOTION_DOT":"-0.00947942","CLASSIFICATION_TYPE":"U","DECAY_DATE":null,"EPHEMERIS_TYPE":"0","TLE_LINE2":"2 48028  53.0453  38.2678 0001493  52.6105 182.3413 15.42137434  3687","RA_OF_ASC_NODE":"38.2678","PERIOD":"93.377","TIME_SYSTEM":"UTC","TLE_LINE1":"1 48028U 21024BD  21262.00001157 -.00947942  00000-0 -23801-1 0  9990","MEAN_ELEMENT_THEORY":"SGP4","MEAN_ANOMALY":"182.3413","INCLINATION":"53.0453","COUNTRY_CODE":"US","LAUNCH_DATE":"2021-03-24","REF_FRAME":"TEME","RCS_SIZE":"LARGE","ECCENTRICITY":"0.00014930","OBJECT_NAME":"STARLINK-2264","MEAN_MOTION_DDOT":"0.0000000000000","ARG_OF_PERICENTER":"52.6105","BSTAR":"-0.02380100000000","ELEMENT_SET_NO":"999","SITE":"AFETR","EPOCH":"2021-09-19T00:00:00.999648","PERIAPSIS":"438.786","OBJECT_ID":"2021-024BD","OBJECT_TYPE":"PAYLOAD","NORAD_CAT_ID":"48028","FILE":"3118781"},{"RA_OF_ASC_NODE":"101.0496","TIME_SYSTEM":"UTC","PERIOD":"95.594","MEAN_ANOMALY":"84.1771","MEAN_ELEMENT_THEORY":"SGP4","TLE_LINE1":"1 48029U 21024BE  21262.00001157  .00048136  00000-0  32305-2 0  9996","REV_AT_EPOCH":"357","SEMIMAJOR_AXIS":"6925.421","MEAN_MOTION_DOT":"0.00048136","CENTER_NAME":"EARTH","GP_ID":"184974682","MEAN_MOTION":"15.06376353","APOAPSIS":"548.867","TLE_LINE2":"2 48029  53.0549 101.0496 0002283  80.0453  84.1771 15.06376353  3579","EPHEMERIS_TYPE":"0","CLASSIFICATION_TYPE":"U","DECAY_DATE":null,"BSTAR":"0.00323050000000","MEAN_MOTION_DDOT":"0.0000000000000","ARG_OF_PERICENTER":"80.0453","ELEMENT_SET_NO":"999","ECCENTRICITY":"0.00022830","OBJECT_NAME":"STARLINK-2299","OBJECT_TYPE":"PAYLOAD","NORAD_CAT_ID":"48029","FILE":"3118781","PERIAPSIS":"545.705","EPOCH":"2021-09-19T00:00:00.999648","SITE":"AFETR","OBJECT_ID":"2021-024BE","INCLINATION":"53.0549","REF_FRAME":"TEME","RCS_SIZE":"LARGE","LAUNCH_DATE":"2021-03-24","COUNTRY_CODE":"US"},{"CLASSIFICATION_TYPE":"U","DECAY_DATE":null,"EPHEMERIS_TYPE":"0","TLE_LINE2":"2 48030  53.0533 106.0365 0001745  89.2861 287.4586 15.06370179  3583","GP_ID":"184974432","CENTER_NAME":"EARTH","MEAN_MOTION":"15.06370179","APOAPSIS":"548.513","SEMIMAJOR_AXIS":"6925.440","REV_AT_EPOCH":"358","MEAN_MOTION_DOT":"0.00039843","TLE_LINE1":"1 48030U 21024BF  21262.00001157  .00039843  00000-0  26808-2 0  9994","MEAN_ANOMALY":"287.4586","MEAN_ELEMENT_THEORY":"SGP4","RA_OF_ASC_NODE":"106.0365","TIME_SYSTEM":"UTC","PERIOD":"95.594","LAUNCH_DATE":"2021-03-24","COUNTRY_CODE":"US","RCS_SIZE":"LARGE","REF_FRAME":"TEME","INCLINATION":"53.0533","PERIAPSIS":"546.096","SITE":"AFETR","EPOCH":"2021-09-19T00:00:00.999648","OBJECT_ID":"2021-024BF","OBJECT_TYPE":"PAYLOAD","NORAD_CAT_ID":"48030","FILE":"3118781","ECCENTRICITY":"0.00017450","OBJECT_NAME":"STARLINK-2268","MEAN_MOTION_DDOT":"0.0000000000000","ARG_OF_PERICENTER":"89.2861","BSTAR":"0.00268080000000","ELEMENT_SET_NO":"999"},{"TLE_LINE1":"1 48031U 21024BG  21262.00001157 -.00036292  00000-0 -25496-3 0  9995","MEAN_ANOMALY":"12.3045","MEAN_ELEMENT_THEORY":"SGP4","TIME_SYSTEM":"UTC","PERIOD":"91.533","RA_OF_ASC_NODE":"36.6399","DECAY_DATE":null,"CLASSIFICATION_TYPE":"U","TLE_LINE2":"2 48031  53.0460  36.6399 0004234 356.4191  12.3045 15.73207915  3686","EPHEMERIS_TYPE":"0","MEAN_MOTION":"15.73207915","APOAPSIS":"352.586","GP_ID":"184973680","CENTER_NAME":"EARTH","MEAN_MOTION_DOT":"-0.00036292","REV_AT_EPOCH":"368","SEMIMAJOR_AXIS":"6727.873","OBJECT_ID":"2021-024BG","PERIAPSIS":"346.889","EPOCH":"2021-09-19T00:00:00.999648","SITE":"AFETR","NORAD_CAT_ID":"48031","FILE":"3118781","OBJECT_TYPE":"PAYLOAD","OBJECT_NAME":"STARLINK-2267","ECCENTRICITY":"0.00042340","ELEMENT_SET_NO":"999","MEAN_MOTION_DDOT":"0.0000000000000","ARG_OF_PERICENTER":"356.4191","BSTAR":"-0.00025496000000","LAUNCH_DATE":"2021-03-24","COUNTRY_CODE":"US","RCS_SIZE":"LARGE","REF_FRAME":"TEME","INCLINATION":"53.0460"},{"LAUNCH_DATE":"2021-03-24","COUNTRY_CODE":"US","REF_FRAME":"TEME","RCS_SIZE":"LARGE","INCLINATION":"53.0459","PERIAPSIS":"346.743","EPOCH":"2021-09-19T00:00:00.999648","SITE":"AFETR","OBJECT_ID":"2021-024BH","OBJECT_TYPE":"PAYLOAD","NORAD_CAT_ID":"48032","FILE":"3118781","ECCENTRICITY":"0.00043470","OBJECT_NAME":"STARLINK-2297","BSTAR":"-0.00016545000000","MEAN_MOTION_DDOT":"0.0000000000000","ARG_OF_PERICENTER":"357.4534","ELEMENT_SET_NO":"999","DECAY_DATE":null,"CLASSIFICATION_TYPE":"U","TLE_LINE2":"2 48032  53.0459  36.6362 0004347 357.4534  11.8635 15.73232410  3678","EPHEMERIS_TYPE":"0","GP_ID":"184973931","CENTER_NAME":"EARTH","MEAN_MOTION":"15.73232410","APOAPSIS":"352.592","SEMIMAJOR_AXIS":"6727.803","REV_AT_EPOCH":"367","MEAN_MOTION_DOT":"-0.00023830","TLE_LINE1":"1 48032U 21024BH  21262.00001157 -.00023830  00000-0 -16545-3 0  9995","MEAN_ANOMALY":"11.8635","MEAN_ELEMENT_THEORY":"SGP4","RA_OF_ASC_NODE":"36.6362","TIME_SYSTEM":"UTC","PERIOD":"91.531"},{"COUNTRY_CODE":"US","LAUNCH_DATE":"2021-03-24","RCS_SIZE":"LARGE","REF_FRAME":"TEME","INCLINATION":"53.0545","OBJECT_ID":"2021-024BJ","EPOCH":"2021-09-19T00:00:00.999648","SITE":"AFETR","PERIAPSIS":"545.827","FILE":"3118781","NORAD_CAT_ID":"48033","OBJECT_TYPE":"PAYLOAD","OBJECT_NAME":"STARLINK-2286","ECCENTRICITY":"0.00021680","ELEMENT_SET_NO":"999","MEAN_MOTION_DDOT":"0.0000000000000","BSTAR":"0.00324190000000","ARG_OF_PERICENTER":"79.0130","CLASSIFICATION_TYPE":"U","DECAY_DATE":null,"TLE_LINE2":"2 48033  53.0545 101.0576 0002168  79.0130  90.4144 15.06362396  3577","EPHEMERIS_TYPE":"0","APOAPSIS":"548.830","MEAN_MOTION":"15.06362396","CENTER_NAME":"EARTH","GP_ID":"184974182","MEAN_MOTION_DOT":"0.00048290","REV_AT_EPOCH":"357","SEMIMAJOR_AXIS":"6925.464","TLE_LINE1":"1 48033U 21024BJ  21262.00001157  .00048290  00000-0  32419-2 0  9998","MEAN_ELEMENT_THEORY":"SGP4","MEAN_ANOMALY":"90.4144","PERIOD":"95.595","TIME_SYSTEM":"UTC","RA_OF_ASC_NODE":"101.0576"},{"RA_OF_ASC_NODE":"101.0453","TIME_SYSTEM":"UTC","PERIOD":"95.594","MEAN_ANOMALY":"43.9506","MEAN_ELEMENT_THEORY":"SGP4","TLE_LINE1":"1 48034U 21024BK  21262.00001157  .00046131  00000-0  30986-2 0  9998","SEMIMAJOR_AXIS":"6925.458","REV_AT_EPOCH":"357","MEAN_MOTION_DOT":"0.00046131","CENTER_NAME":"EARTH","GP_ID":"184974933","MEAN_MOTION":"15.06364354","APOAPSIS":"548.642","TLE_LINE2":"2 48034  53.0547 101.0453 0001905  80.3407  43.9506 15.06364354  3575","EPHEMERIS_TYPE":"0","CLASSIFICATION_TYPE":"U","DECAY_DATE":null,"MEAN_MOTION_DDOT":"0.0000000000000","BSTAR":"0.00309860000000","ARG_OF_PERICENTER":"80.3407","ELEMENT_SET_NO":"999","ECCENTRICITY":"0.00019050","OBJECT_NAME":"STARLINK-2288","OBJECT_TYPE":"PAYLOAD","FILE":"3118781","NORAD_CAT_ID":"48034","PERIAPSIS":"546.004","EPOCH":"2021-09-19T00:00:00.999648","SITE":"AFETR","OBJECT_ID":"2021-024BK","INCLINATION":"53.0547","RCS_SIZE":"LARGE","REF_FRAME":"TEME","LAUNCH_DATE":"2021-03-24","COUNTRY_CODE":"US"},{"LAUNCH_DATE":"2021-03-24","COUNTRY_CODE":"US","REF_FRAME":"TEME","RCS_SIZE":"MEDIUM","INCLINATION":"53.0462","OBJECT_ID":"2021-024BL","PERIAPSIS":"346.582","SITE":"AFETR","EPOCH":"2021-09-19T00:00:00.999648","FILE":"3118781","NORAD_CAT_ID":"48035","OBJECT_TYPE":"PAYLOAD","OBJECT_NAME":"STARLINK-2287","ECCENTRICITY":"0.00046390","ELEMENT_SET_NO":"999","MEAN_MOTION_DDOT":"0.0000000000000","BSTAR":"0.00008048700000","ARG_OF_PERICENTER":"339.1264","DECAY_DATE":null,"CLASSIFICATION_TYPE":"U","TLE_LINE2":"2 48035  53.0462  36.6369 0004639 339.1264  32.0947 15.73220020  3678","EPHEMERIS_TYPE":"0","MEAN_MOTION":"15.73220020","APOAPSIS":"352.824","CENTER_NAME":"EARTH","GP_ID":"184973180","MEAN_MOTION_DOT":"0.00010702","SEMIMAJOR_AXIS":"6727.838","REV_AT_EPOCH":"367","TLE_LINE1":"1 48035U 21024BL  21262.00001157  .00010702  00000-0  80487-4 0  9997","MEAN_ANOMALY":"32.0947","MEAN_ELEMENT_THEORY":"SGP4","TIME_SYSTEM":"UTC","PERIOD":"91.532","RA_OF_ASC_NODE":"36.6369"},{"OBJECT_TYPE":"PAYLOAD","FILE":"3118781","NORAD_CAT_ID":"48036","SITE":"AFETR","EPOCH":"2021-09-19T00:00:00.999648","PERIAPSIS":"546.127","OBJECT_ID":"2021-024BM","ARG_OF_PERICENTER":"98.1425","MEAN_MOTION_DDOT":"0.0000000000000","BSTAR":"0.00290690000000","ELEMENT_SET_NO":"999","ECCENTRICITY":"0.00016730","OBJECT_NAME":"STARLINK-2295","RCS_SIZE":"LARGE","REF_FRAME":"TEME","COUNTRY_CODE":"US","LAUNCH_DATE":"2021-03-24","INCLINATION":"53.0553","MEAN_ELEMENT_THEORY":"SGP4","MEAN_ANOMALY":"346.1235","TLE_LINE1":"1 48036U 21024BM  21262.00001157  .00043256  00000-0  29069-2 0  9995","RA_OF_ASC_NODE":"101.0509","PERIOD":"95.594","TIME_SYSTEM":"UTC","TLE_LINE2":"2 48036  53.0553 101.0509 0001673  98.1425 346.1235 15.06376349  3579","EPHEMERIS_TYPE":"0","DECAY_DATE":null,"CLASSIFICATION_TYPE":"U","SEMIMAJOR_AXIS":"6925.421","REV_AT_EPOCH":"357","MEAN_MOTION_DOT":"0.00043256","GP_ID":"184973431","CENTER_NAME":"EARTH","APOAPSIS":"548.445","MEAN_MOTION":"15.06376349"}];
